COSMOS 2407             
1 28380U 04028A   26137.33346272  .00000034  00000+0  19745-4 0  9990
2 28380  82.9588  97.6842 0038797 340.8506 172.7376 13.76331931 95632
COSMOS 2414             
1 28521U 05002A   26137.32142924  .00000065  00000+0  40961-4 0  9995
2 28521  82.9503  66.9913 0041426  58.4081 302.1115 13.87923244 79534
INMARSAT 4-F1           
1 28628U 05009A   26137.49905759  .00000037  00000+0  00000+0 0  9995
2 28628   5.1284  42.6994 0002585  12.1144 178.1732  1.00270641 77368
SJ-7                    
1 28737U 05024A   26137.04441985  .00006038  00000+0  27431-3 0  9998
2 28737  97.7305 166.3199 0017232 136.6665 223.5928 15.21031515143297
CUBESAT XI-V            
1 28895U 05043F   26136.87452282  .00000766  00000+0  12875-3 0  9994
2 28895  98.2950 291.8469 0012953 307.9672  52.0364 14.72541900 97144
HINODE (SOLAR-B)        
1 29479U 06041A   26137.45743229  .00000395  00000+0  76321-4 0  9996
2 29479  98.0561 154.0626 0018144  30.1655 330.0591 14.68574380 50365
SHIJIAN-6 02B (SJ-6 02B)
1 29506U 06046B   26137.55444433  .00001414  00000+0  11458-3 0  9990
2 29506  97.7158 166.8025 0012033 157.5491 202.6262 15.01285262 66149
DMSP 5D-3 F17 (USA 191) 
1 29522U 06050A   26137.48090817  .00000041  00000+0  43681-4 0  9997
2 29522  98.7386 144.6791 0010854 138.4602 221.7398 14.14987493  8085
LAPAN-TUBSAT            
1 29709U 07001A   26137.48052814  .00000533  00000+0  67729-4 0  9991
2 29709  98.1337 136.0134 0010823 288.8245  71.1795 14.85916849 46598
HAIYANG-1B              
1 31113U 07010A   26137.44977440  .00000036  00000+0  29644-4 0  9992
2 31113  98.3487 120.4897 0012346 295.3137  64.6768 14.31018777996232
COSMO-SKYMED 2          
1 32376U 07059A   26137.51126451  .00000204  00000+0  32171-4 0  9999
2 32376  97.8884 321.5546 0001456  90.3043 269.8337 14.82158391997452
CARTOSAT-2A             
1 32783U 08021A   26137.47105234  .00000161  00000+0  28370-4 0  9990
2 32783  97.7661 187.2254 0010977 204.8396 155.2289 14.79190833974261
CUTE-1.7+APD II (CO-65) 
1 32785U 08021C   26137.48659419  .00003764  00000+0  24117-3 0  9998
2 32785  97.8266 118.2778 0010361 126.7881 233.4299 15.09135694980566
SEEDS II (CO-66)        
1 32791U 08021J   26137.44056068  .00011796  00000+0  38870-3 0  9997
2 32791  97.7519 133.8991 0004868  75.6870 284.4910 15.31622759982586
YUBILEINY (RS30)        
1 32953U 08025A   26137.51680111  .00000102  00000+0  66461-3 0  9997
2 32953  82.5074  14.5199 0020186  20.9047 339.2854 12.43178429815883
FENGYUN 3A              
1 32958U 08026A   26137.45737346  .00000035  00000+0  37008-4 0  9990
2 32958  98.6875  78.8680 0008014 210.4991 149.5720 14.19564146931044
HUANJING 1A (HJ-1A)     
1 33320U 08041A   26137.55339288  .00000498  00000+0  66016-4 0  9999
2 33320  97.6669 124.5803 0017430 237.1846 122.7691 14.83912418953865
HUANJING 1B (HJ-1B)     
1 33321U 08041B   26137.50882282  .00000336  00000+0  47026-4 0  9993
2 33321  97.6505 127.8009 0034834 285.2531  74.4833 14.83259181953863
SHIJIAN-6 03A (SJ-6 03A)
1 33408U 08053A   26137.50876340  .00003924  00000+0  20286-3 0  9994
2 33408  97.8429 169.7673 0012991 115.3135 244.9445 15.16833305958312
SHIJIAN-6 03B (SJ-6 03B)
1 33409U 08053B   26137.50090426  .00000709  00000+0  55455-4 0  9993
2 33409  97.8594 156.8849 0020620 139.5999 220.6763 15.04214918958136
CHUANGXIN 1-02 (CX-1-02)
1 33434U 08056B   26137.51391402  .00000124  00000+0  64896-4 0  9993
2 33434  98.6153 164.0837 0013259 227.2179 132.7889 14.30146870914231
STARS (KUKAI)           
1 33498U 09002G   26137.31008502  .00002295  00000+0  21276-3 0  9994
2 33498  98.1536  83.3678 0006947 273.0012  87.0413 14.95515891933867
