OBJECT_NAME,OBJECT_ID,EPOCH,MEAN_MOTION,ECCENTRICITY,INCLINATION,RA_OF_ASC_NODE,ARG_OF_PERICENTER,MEAN_ANOMALY,EPHEMERIS_TYPE,CLASSIFICATION_TYPE,NORAD_CAT_ID,ELEMENT_SET_NO,REV_AT_EPOCH,BSTAR,MEAN_MOTION_DOT,MEAN_MOTION_DDOT
COSMOS 2407,2004-028A,2026-05-17T08:00:11.179008,13.76331931,.0038797,82.9588,97.6842,340.8506,172.7376,0,U,28380,999,9563,.19745E-4,.34E-6,0
COSMOS 2414,2005-002A,2026-05-17T07:42:51.486336,13.87923244,.0041426,82.9503,66.9913,58.4081,302.1115,0,U,28521,999,7953,.40961E-4,.65E-6,0
INMARSAT 4-F1,2005-009A,2026-05-17T11:58:38.575776,1.00270641,.0002585,5.1284,42.6994,12.1144,178.1732,0,U,28628,999,7736,0,.37E-6,0
SJ-7,2005-024A,2026-05-17T01:03:57.875040,15.21031515,.0017232,97.7305,166.3199,136.6665,223.5928,0,U,28737,999,14329,.27431E-3,.6038E-4,0
CUBESAT XI-V,2005-043F,2026-05-16T20:59:18.771648,14.72541900,.0012953,98.2950,291.8469,307.9672,52.0364,0,U,28895,999,9714,.12875E-3,.766E-5,0
HINODE (SOLAR-B),2006-041A,2026-05-17T10:58:42.149856,14.68574380,.0018144,98.0561,154.0626,30.1655,330.0591,0,U,29479,999,5036,.76321E-4,.395E-5,0
SHIJIAN-6 02B (SJ-6 02B),2006-046B,2026-05-17T13:18:23.990112,15.01285262,.0012033,97.7158,166.8025,157.5491,202.6262,0,U,29506,999,6614,.11458E-3,.1414E-4,0
DMSP 5D-3 F17 (USA 191),2006-050A,2026-05-17T11:32:30.465888,14.14987493,.0010854,98.7386,144.6791,138.4602,221.7398,0,U,29522,999,808,.43681E-4,.41E-6,0
LAPAN-TUBSAT,2007-001A,2026-05-17T11:31:57.631296,14.85916849,.0010823,98.1337,136.0134,288.8245,71.1795,0,U,29709,999,4659,.67729E-4,.533E-5,0
HAIYANG-1B,2007-010A,2026-05-17T10:47:40.508160,14.31018777,.0012346,98.3487,120.4897,295.3137,64.6768,0,U,31113,999,99623,.29644E-4,.36E-6,0
COSMO-SKYMED 2,2007-059A,2026-05-17T12:16:13.253664,14.82158391,.0001456,97.8884,321.5546,90.3043,269.8337,0,U,32376,999,99745,.32171E-4,.204E-5,0
CARTOSAT-2A,2008-021A,2026-05-17T11:18:18.922176,14.79190833,.0010977,97.7661,187.2254,204.8396,155.2289,0,U,32783,999,97426,.2837E-4,.161E-5,0
CUTE-1.7+APD II (CO-65),2008-021C,2026-05-17T11:40:41.738016,15.09135694,.0010361,97.8266,118.2778,126.7881,233.4299,0,U,32785,999,98056,.24117E-3,.3764E-4,0
SEEDS II (CO-66),2008-021J,2026-05-17T10:34:24.442752,15.31622759,.0004868,97.7519,133.8991,75.6870,284.4910,0,U,32791,999,98258,.3887E-3,.11796E-3,0
YUBILEINY (RS30),2008-025A,2026-05-17T12:24:11.615904,12.43178429,.0020186,82.5074,14.5199,20.9047,339.2854,0,U,32953,999,81588,.66461E-3,.102E-5,0
FENGYUN 3A,2008-026A,2026-05-17T10:58:37.066944,14.19564146,.0008014,98.6875,78.8680,210.4991,149.5720,0,U,32958,999,93104,.37008E-4,.35E-6,0
HUANJING 1A (HJ-1A),2008-041A,2026-05-17T13:16:53.144832,14.83912418,.001743,97.6669,124.5803,237.1846,122.7691,0,U,33320,999,95386,.66016E-4,.498E-5,0
HUANJING 1B (HJ-1B),2008-041B,2026-05-17T12:12:42.291648,14.83259181,.0034834,97.6505,127.8009,285.2531,74.4833,0,U,33321,999,95386,.47026E-4,.336E-5,0
SHIJIAN-6 03A (SJ-6 03A),2008-053A,2026-05-17T12:12:37.157760,15.16833305,.0012991,97.8429,169.7673,115.3135,244.9445,0,U,33408,999,95831,.20286E-3,.3924E-4,0
SHIJIAN-6 03B (SJ-6 03B),2008-053B,2026-05-17T12:01:18.128064,15.04214918,.002062,97.8594,156.8849,139.5999,220.6763,0,U,33409,999,95813,.55455E-4,.709E-5,0
CHUANGXIN 1-02 (CX-1-02),2008-056B,2026-05-17T12:20:02.171328,14.30146870,.0013259,98.6153,164.0837,227.2179,132.7889,0,U,33434,999,91423,.64896E-4,.124E-5,0
STARS (KUKAI),2009-002G,2026-05-17T07:26:31.345728,14.95515891,.0006947,98.1536,83.3678,273.0012,87.0413,0,U,33498,999,93386,.21276E-3,.2295E-4,0
